start=new Date('2021-11-05T00:00:00.000Z').valueOf();
sats=[{"GP_ID":"188953571","OBJECT_TYPE":"PAYLOAD","FILE":"3202404","DECAY_DATE":null,"MEAN_ELEMENT_THEORY":"SGP4","ECCENTRICITY":"0.00016800","OBJECT_ID":"2020-073AE","TIME_SYSTEM":"UTC","REF_FRAME":"TEME","RA_OF_ASC_NODE":"160.5256","BSTAR":"0.00006000200000","CLASSIFICATION_TYPE":"U","CENTER_NAME":"EARTH","REV_AT_EPOCH":"5811","EPHEMERIS_TYPE":"0","TLE_LINE1":"1 46698U 20073AE  21308.89636235  .00000612  00000-0  60002-4 0  9992","INCLINATION":"53.0523","PERIOD":"95.592","COUNTRY_CODE":"US","MEAN_ANOMALY":"277.4583","NORAD_CAT_ID":"46698","MEAN_MOTION_DOT":"0.00000612","MEAN_MOTION":"15.06399993","LAUNCH_DATE":"2020-10-18","APOAPSIS":"548.377","ARG_OF_PERICENTER":"82.6596","EPOCH":"2021-11-04T21:30:45.707040","TLE_LINE2":"2 46698  53.0523 160.5256 0001680  82.6596 277.4583 15.06399993 58114","SEMIMAJOR_AXIS":"6925.349","OBJECT_NAME":"STARLINK-1797","MEAN_MOTION_DDOT":"0.0000000000000","ELEMENT_SET_NO":"999","RCS_SIZE":"LARGE","SITE":"AFETR","PERIAPSIS":"546.050"},{"COUNTRY_CODE":"US","MEAN_MOTION_DOT":"0.00002543","NORAD_CAT_ID":"46699","MEAN_ANOMALY":"279.8468","INCLINATION":"53.0549","PERIOD":"95.593","RCS_SIZE":"LARGE","MEAN_MOTION_DDOT":"0.0000000000000","ELEMENT_SET_NO":"999","OBJECT_NAME":"STARLINK-1799","SEMIMAJOR_AXIS":"6925.372","TLE_LINE2":"2 46699  53.0549 160.5076 0001494  80.2689 279.8468 15.06392302 58118","ARG_OF_PERICENTER":"80.2689","EPOCH":"2021-11-04T21:36:05.270400","PERIAPSIS":"546.203","SITE":"AFETR","LAUNCH_DATE":"2020-10-18","MEAN_MOTION":"15.06392302","APOAPSIS":"548.272","OBJECT_ID":"2020-073AF","ECCENTRICITY":"0.00014940","DECAY_DATE":null,"MEAN_ELEMENT_THEORY":"SGP4","OBJECT_TYPE":"PAYLOAD","GP_ID":"188953821","FILE":"3202404","EPHEMERIS_TYPE":"0","CENTER_NAME":"EARTH","REV_AT_EPOCH":"5811","TLE_LINE1":"1 46699U 20073AF  21308.90006100  .00002543  00000-0  18958-3 0  9994","REF_FRAME":"TEME","TIME_SYSTEM":"UTC","CLASSIFICATION_TYPE":"U","BSTAR":"0.00018958000000","RA_OF_ASC_NODE":"160.5076"},{"FILE":"3202404","OBJECT_TYPE":"PAYLOAD","GP_ID":"188954572","ECCENTRICITY":"0.00018510","DECAY_DATE":null,"MEAN_ELEMENT_THEORY":"SGP4","OBJECT_ID":"2020-073AG","BSTAR":"0.00021712000000","RA_OF_ASC_NODE":"175.4919","CLASSIFICATION_TYPE":"U","TIME_SYSTEM":"UTC","REF_FRAME":"TEME","TLE_LINE1":"1 46700U 20073AG  21308.90419249  .00002954  00000-0  21712-3 0  9997","CENTER_NAME":"EARTH","REV_AT_EPOCH":"5790","EPHEMERIS_TYPE":"0","PERIOD":"95.592","INCLINATION":"53.0508","NORAD_CAT_ID":"46700","MEAN_ANOMALY":"291.2280","MEAN_MOTION_DOT":"0.00002954","COUNTRY_CODE":"US","APOAPSIS":"548.487","MEAN_MOTION":"15.06402885","LAUNCH_DATE":"2020-10-18","PERIAPSIS":"545.923","SITE":"AFETR","TLE_LINE2":"2 46700  53.0508 175.4919 0001851  68.8907 291.2280 15.06402885 57903","SEMIMAJOR_AXIS":"6925.340","EPOCH":"2021-11-04T21:42:02.231136","ARG_OF_PERICENTER":"68.8907","RCS_SIZE":"LARGE","MEAN_MOTION_DDOT":"0.0000000000000","ELEMENT_SET_NO":"999","OBJECT_NAME":"STARLINK-1800"},{"OBJECT_ID":"2020-073AH","DECAY_DATE":null,"MEAN_ELEMENT_THEORY":"SGP4","ECCENTRICITY":"0.00016630","FILE":"3202404","GP_ID":"188955317","OBJECT_TYPE":"PAYLOAD","TLE_LINE1":"1 46701U 20073AH  21308.87056384  .00002142  00000-0  16264-3 0  9996","EPHEMERIS_TYPE":"0","CENTER_NAME":"EARTH","REV_AT_EPOCH":"5811","CLASSIFICATION_TYPE":"U","RA_OF_ASC_NODE":"160.6289","BSTAR":"0.00016264000000","TIME_SYSTEM":"UTC","REF_FRAME":"TEME","MEAN_MOTION_DOT":"0.00002142","MEAN_ANOMALY":"284.2075","NORAD_CAT_ID":"46701","COUNTRY_CODE":"US","PERIOD":"95.592","INCLINATION":"53.0528","SITE":"AFETR","PERIAPSIS":"546.071","MEAN_MOTION_DDOT":"0.0000000000000","ELEMENT_SET_NO":"999","OBJECT_NAME":"STARLINK-1801","RCS_SIZE":"LARGE","EPOCH":"2021-11-04T20:53:36.715776","ARG_OF_PERICENTER":"75.9098","TLE_LINE2":"2 46701  53.0528 160.6289 0001663  75.9098 284.2075 15.06397183 58115","SEMIMAJOR_AXIS":"6925.357","APOAPSIS":"548.374","LAUNCH_DATE":"2020-10-18","MEAN_MOTION":"15.06397183"},{"OBJECT_TYPE":"PAYLOAD","GP_ID":"188954065","FILE":"3202404","OBJECT_ID":"2020-073AJ","ECCENTRICITY":"0.00015700","DECAY_DATE":null,"MEAN_ELEMENT_THEORY":"SGP4","TIME_SYSTEM":"UTC","REF_FRAME":"TEME","CLASSIFICATION_TYPE":"U","BSTAR":"0.00022458000000","RA_OF_ASC_NODE":"140.5888","EPHEMERIS_TYPE":"0","CENTER_NAME":"EARTH","REV_AT_EPOCH":"5839","TLE_LINE1":"1 46702U 20073AJ  21308.88347433  .00003065  00000-0  22458-3 0  9993","INCLINATION":"53.0546","PERIOD":"95.592","COUNTRY_CODE":"US","MEAN_MOTION_DOT":"0.00003065","NORAD_CAT_ID":"46702","MEAN_ANOMALY":"226.5444","LAUNCH_DATE":"2020-10-18","MEAN_MOTION":"15.06395459","APOAPSIS":"548.315","RCS_SIZE":"LARGE","ELEMENT_SET_NO":"999","MEAN_MOTION_DDOT":"0.0000000000000","OBJECT_NAME":"STARLINK-1802","SEMIMAJOR_AXIS":"6925.362","TLE_LINE2":"2 46702  53.0546 140.5888 0001570 133.5676 226.5444 15.06395459 58391","EPOCH":"2021-11-04T21:12:12.182112","ARG_OF_PERICENTER":"133.5676","PERIAPSIS":"546.140","SITE":"AFETR"},{"LAUNCH_DATE":"2020-10-18","MEAN_MOTION":"15.06393330","APOAPSIS":"548.276","RCS_SIZE":"LARGE","MEAN_MOTION_DDOT":"0.0000000000000","ELEMENT_SET_NO":"999","OBJECT_NAME":"STARLINK-1803","SEMIMAJOR_AXIS":"6925.369","TLE_LINE2":"2 46703  53.0523 160.4438 0001504  80.9904 279.1255 15.06393330 58115","ARG_OF_PERICENTER":"80.9904","EPOCH":"2021-11-04T21:57:19.077696","PERIAPSIS":"546.192","SITE":"AFETR","INCLINATION":"53.0523","PERIOD":"95.593","COUNTRY_CODE":"US","MEAN_MOTION_DOT":"0.00001764","NORAD_CAT_ID":"46703","MEAN_ANOMALY":"279.1255","TIME_SYSTEM":"UTC","REF_FRAME":"TEME","CLASSIFICATION_TYPE":"U","BSTAR":"0.00013731000000","RA_OF_ASC_NODE":"160.4438","EPHEMERIS_TYPE":"0","REV_AT_EPOCH":"5811","CENTER_NAME":"EARTH","TLE_LINE1":"1 46703U 20073AK  21308.91480414  .00001764  00000-0  13731-3 0  9993","OBJECT_TYPE":"PAYLOAD","GP_ID":"188954315","FILE":"3202404","OBJECT_ID":"2020-073AK","ECCENTRICITY":"0.00015040","MEAN_ELEMENT_THEORY":"SGP4","DECAY_DATE":null},{"INCLINATION":"53.0552","PERIOD":"95.593","COUNTRY_CODE":"US","MEAN_MOTION_DOT":"0.00009583","MEAN_ANOMALY":"183.1771","NORAD_CAT_ID":"46704","LAUNCH_DATE":"2020-10-18","MEAN_MOTION":"15.06385594","APOAPSIS":"548.530","MEAN_MOTION_DDOT":"0.0000000000000","ELEMENT_SET_NO":"999","OBJECT_NAME":"STARLINK-1804","RCS_SIZE":"LARGE","EPOCH":"2021-11-04T16:41:30.750720","ARG_OF_PERICENTER":"176.9230","SEMIMAJOR_AXIS":"6925.393","TLE_LINE2":"2 46704  53.0552 141.4109 0001837 176.9230 183.1771 15.06385594 58366","SITE":"AFETR","PERIAPSIS":"545.986","GP_ID":"188955066","OBJECT_TYPE":"PAYLOAD","FILE":"3202404","OBJECT_ID":"2020-073AL","MEAN_ELEMENT_THEORY":"SGP4","DECAY_DATE":null,"ECCENTRICITY":"0.00018370","TIME_SYSTEM":"UTC","REF_FRAME":"TEME","CLASSIFICATION_TYPE":"U","RA_OF_ASC_NODE":"141.4109","BSTAR":"0.00066163000000","EPHEMERIS_TYPE":"0","REV_AT_EPOCH":"5836","CENTER_NAME":"EARTH","TLE_LINE1":"1 46704U 20073AL  21308.69549480  .00009583  00000-0  66163-3 0  9992"},{"PERIAPSIS":"546.094","SITE":"AFETR","TLE_LINE2":"2 46705  53.0527 175.4633 0001589  69.2525 290.8634 15.06406080 57900","SEMIMAJOR_AXIS":"6925.330","EPOCH":"2021-11-04T21:47:22.005312","ARG_OF_PERICENTER":"69.2525","RCS_SIZE":"LARGE","ELEMENT_SET_NO":"999","MEAN_MOTION_DDOT":"0.0000000000000","OBJECT_NAME":"STARLINK-1805","APOAPSIS":"548.295","MEAN_MOTION":"15.06406080","LAUNCH_DATE":"2020-10-18","NORAD_CAT_ID":"46705","MEAN_ANOMALY":"290.8634","MEAN_MOTION_DOT":"0.00005023","COUNTRY_CODE":"US","PERIOD":"95.592","INCLINATION":"53.0527","TLE_LINE1":"1 46705U 20073AM  21308.90789358  .00005023  00000-0  35583-3 0  9994","REV_AT_EPOCH":"5790","CENTER_NAME":"EARTH","EPHEMERIS_TYPE":"0","BSTAR":"0.00035583000000","RA_OF_ASC_NODE":"175.4633","CLASSIFICATION_TYPE":"U","TIME_SYSTEM":"UTC","REF_FRAME":"TEME","ECCENTRICITY":"0.00015890","DECAY_DATE":null,"MEAN_ELEMENT_THEORY":"SGP4","OBJECT_ID":"2020-073AM","FILE":"3202404","OBJECT_TYPE":"PAYLOAD","GP_ID":"188954824"},{"CLASSIFICATION_TYPE":"U","BSTAR":"0.00011896000000","RA_OF_ASC_NODE":"160.5820","REF_FRAME":"TEME","TIME_SYSTEM":"UTC","TLE_LINE1":"1 46706U 20073AN  21308.88163129  .00001490  00000-0  11896-3 0  9999","EPHEMERIS_TYPE":"0","REV_AT_EPOCH":"5811","CENTER_NAME":"EARTH","FILE":"3202404","OBJECT_TYPE":"PAYLOAD","GP_ID":"188953572","OBJECT_ID":"2020-073AN","ECCENTRICITY":"0.00014940","DECAY_DATE":null,"MEAN_ELEMENT_THEORY":"SGP4","APOAPSIS":"548.277","LAUNCH_DATE":"2020-10-18","MEAN_MOTION":"15.06390626","PERIAPSIS":"546.208","SITE":"AFETR","RCS_SIZE":"LARGE","MEAN_MOTION_DDOT":"0.0000000000000","ELEMENT_SET_NO":"999","OBJECT_NAME":"STARLINK-1807","SEMIMAJOR_AXIS":"6925.377","TLE_LINE2":"2 46706  53.0521 160.5820 0001494  80.2515 279.8642 15.06390626 58113","EPOCH":"2021-11-04T21:09:32.943456","ARG_OF_PERICENTER":"80.2515","PERIOD":"95.593","INCLINATION":"53.0521","MEAN_MOTION_DOT":"0.00001490","NORAD_CAT_ID":"46706","MEAN_ANOMALY":"279.8642","COUNTRY_CODE":"US"},{"TLE_LINE1":"1 46707U 20073AP  21308.34162550 -.00000481  00000-0 -13396-4 0  9997","EPHEMERIS_TYPE":"0","REV_AT_EPOCH":"5831","CENTER_NAME":"EARTH","CLASSIFICATION_TYPE":"U","RA_OF_ASC_NODE":"143.0150","BSTAR":"-0.00001339600000","TIME_SYSTEM":"UTC","REF_FRAME":"TEME","OBJECT_ID":"2020-073AP","DECAY_DATE":null,"MEAN_ELEMENT_THEORY":"SGP4","ECCENTRICITY":"0.00022610","FILE":"3200778","GP_ID":"188895121","OBJECT_TYPE":"PAYLOAD","SITE":"AFETR","PERIAPSIS":"545.633","ELEMENT_SET_NO":"999","MEAN_MOTION_DDOT":"0.0000000000000","OBJECT_NAME":"STARLINK-1808","RCS_SIZE":"LARGE","ARG_OF_PERICENTER":"197.1325","EPOCH":"2021-11-04T08:11:56.443200","SEMIMAJOR_AXIS":"6925.334","TLE_LINE2":"2 46707  53.0529 143.0150 0002261 197.1325 162.9588 15.06404748 58318","APOAPSIS":"548.765","LAUNCH_DATE":"2020-10-18","MEAN_MOTION":"15.06404748","MEAN_MOTION_DOT":"-0.00000481","MEAN_ANOMALY":"162.9588","NORAD_CAT_ID":"46707","COUNTRY_CODE":"US","PERIOD":"95.592","INCLINATION":"53.0529"}];
